{"spkid": "50374003", "covariance": {"data": [["9.043890558562873E-14", "-8.062462394980891E-14", "-6.650239565190601E-12", "-1.187109167832461E-13", "2.58270204991606E-12", "1.797837587978905E-12"], ["-8.062462394980891E-14", "7.187584975158824E-14", "5.93149172953725E-12", "1.057889327324467E-13", "-2.302399379057543E-12", "-1.598875609782525E-12"], ["-6.650239565190601E-12", "5.93149172953725E-12", "5.11753455872918E-10", "6.415061955034937E-12", "-1.842553251876458E-10", "-9.644132830646493E-11"], ["-1.187109167832461E-13", "1.057889327324467E-13", "6.415061955034937E-12", "4.05710945980766E-12", "-8.218605558294544E-12", "7.410193352056126E-12"], ["2.58270204991606E-12", "-2.302399379057543E-12", "-1.842553251876458E-10", "-8.218605558294544E-12", "8.216561022022559E-11", "5.071156960768696E-11"], ["1.797837587978905E-12", "-1.598875609782525E-12", "-9.644132830646493E-11", "7.410193352056126E-12", "5.071156960768696E-11", "1.073788012070739E-9"]], "elements": [{"units": null, "value": ".4702653064067921", "title": "eccentricity", "name": "e", "sigma": 3.00730619634298e-07, "label": "e"}, {"value": ".4728491630254688", "title": "perihelion distance", "units": "au", "sigma": 2.6809671715929e-07, "name": "q", "label": "q"}, {"units": "TDB", "title": "time of perihelion passage", "value": "2456125.665539396234", "sigma": 2.26219684349731e-05, "name": "tp", "label": "tp"}, {"label": "node", "sigma": 2.01422676474315e-06, "name": "om", "units": "deg", "value": "205.8246958908782", "title": "longitude of the ascending node"}, {"sigma": 9.06452482043188e-06, "name": "w", "units": "deg", "value": "133.1447568764031", "title": "argument of perihelion", "label": "peri"}, {"label": "i", "name": "i", "sigma": 3.27687047664496e-05, "units": "deg", "title": "inclination", "value": "32.98101214562225"}], "labels": ["e", "q", "tp", "node", "peri", "i"], "epoch": "2456073.5"}, "elements": [{"title": "eccentricity", "value": ".4701769390181268", "units": null, "sigma": "3.0065E-7", "name": "e", "label": "e"}, {"label": "a", "name": "a", "sigma": "1.3205E-9", "units": "au", "title": "semi-major axis", "value": ".8926306831888717"}, {"units": "au", "value": ".4729363208934688", "title": "perihelion distance", "sigma": "2.6802E-7", "name": "q", "label": "q"}, {"label": "i", "units": "deg", "value": "32.98554753620445", "title": "inclination; angle with respect to x-y ecliptic plane", "name": "i", "sigma": "3.2774E-5"}, {"name": "om", "sigma": "2.0197E-6", "units": "deg", "value": "205.7763881818593", "title": "longitude of the ascending node", "label": "node"}, {"title": "argument of perihelion", "value": "133.1590810792652", "units": "deg", "name": "w", "sigma": "9.1131E-6", "label": "peri"}, {"units": "deg", "title": "mean anomaly", "value": "171.3542218138114", "sigma": "2.5998E-5", "name": "ma", "label": "M"}, {"label": "tp", "name": "tp", "sigma": "2.2179E-5", "value": "2461053.878232060750", "title": "time of perihelion passage", "units": "TDB"}, {"sigma": "6.8355E-7", "name": "per", "title": "sidereal orbital period", "value": "308.0393111964488", "units": "d", "label": "period"}, {"label": "n", "units": "deg/d", "value": "1.168682005558744", "title": "mean motion", "name": "n", "sigma": "2.5933E-9"}, {"label": "Q", "name": "ad", "sigma": "1.9414E-9", "units": "au", "title": "aphelion distance", "value": "1.312325045484275"}], "epoch": "2461200.5"}